
FLOCK 4S-41
1 47698U 21006ER  24223.79371425  .00077020  00000+0  11548-2 0  9990
2 47698  97.3349 290.7305 0003866   5.8997 354.2302 15.54665339197438

FLOCK 4S-42
1 47612U 21006EQ  24223.74788993  .00081849  00000+0  11642-2 0  9992
2 47612  97.3274 290.0744 0004192  13.9219 346.2151 15.56086426197441

FLOCK 4S-44
1 47686U 21006EM  24223.70252705  .00079839  00000+0  11338-2 0  9994
2 47686  97.3216 290.2040 0004811   1.0115 359.1148 15.56134710197449

FLOCK 4S-46
1 47684U 21006EK  24223.84423116  .00069669  00000+0  10082-2 0  9998
2 47684  97.3374 290.6306 0003209  24.5324 335.6082 15.55667438197480

FLOCK 4S-47
1 47685U 21006EL  24223.73440954  .00072971  00000+0  10720-2 0  9995
2 47685  97.3227 289.1315 0002816  20.1900 339.9465 15.55244435197420

FLOCK 4S-48
1 47617U 21006EJ  24223.86967981  .00075208  00000+0  11768-2 0  9997
2 47617  97.3298 289.9486 0004057 339.9154  20.1939 15.53493225198428

FLOCK 4S-5
1 47515U 21006DF  24223.72592724  .00079355  00000+0  11273-2 0  9996
2 47515  97.3183 288.8665 0003387 355.4065   4.7158 15.56133494197459

FLOCK 4S-9
1 47478U 21006BT  24223.86816250  .00065941  00000+0  10714-2 0  9997
2 47478  97.3231 288.6616 0002768  23.5211 336.6168 15.52486726197412

FLOCK 4V-11
1 46285U 20061P   24223.80073212  .00149409  00000+0  28161-2 0  9996
2 46285  97.3495 297.8950 0002422 347.2283  12.8906 15.47944361218385

FLOCK 4V-13
1 46297U 20061AB  24223.77675726  .00065376  00000+0  12380-2 0  9999
2 46297  97.3476 298.1506 0000094 266.2842  93.8397 15.48143340218339

FLOCK 4V-14
1 46286U 20061Q   24223.80919714  .00074662  00000+0  13362-2 0  9998
2 46286  97.3480 298.3685 0001903   8.5196 351.6087 15.49723643218412

FLOCK 4V-8
1 46288U 20061S   24223.86045848  .00058680  00000+0  11195-2 0  9998
2 46288  97.3509 298.1226 0001895  36.2207 323.9172 15.47957039218318

FLOCK 4X-1
1 51017U 22002AK  24223.73768011  .00071326  00000+0  11461-2 0  9999
2 51017  97.3810 300.9820 0005559 167.6140 192.5250 15.52762234143475

FLOCK 4X-12
1 51015U 22002AH  24223.79451548  .00068585  00000+0  11065-2 0  9990
2 51015  97.3835 301.3304 0006045 166.9574 193.1836 15.52658023143473

FLOCK 4X-16
1 51020U 22002AN  24223.87021461  .00092190  00000+0  14130-2 0  9997
2 51020  97.3833 301.2167 0005111 162.2401 197.9032 15.53995102143501

FLOCK 4X-17
1 51035U 22002BD  24223.74783988  .00070004  00000+0  11379-2 0  9990
2 51035  97.3893 301.3357 0004575 187.2630 172.8557 15.52451215143469

FLOCK 4X-2
1 50996U 22002N   24223.19680167  .00064957  00000+0  10532-2 0  9999
2 50996  97.3870 300.8473 0005701 179.9857 180.1396 15.52536002143385

FLOCK 4X-22
1 51003U 22002V   24223.75253460  .00374248  00000+0  46593-2 0  9996
2 51003  97.3890 301.7929 0005611 212.8652 147.2255 15.58665681143507

FLOCK 4X-26
1 51026U 22002AU  24223.55100349  .00081389  00000+0  12812-2 0  9994
2 51026  97.3867 301.0323 0005549 173.5035 186.6291 15.53294528143459

FLOCK 4X-29
1 51011U 22002AD  24223.75403273  .00087674  00000+0  12679-2 0  9996
2 51011  97.3890 301.7688 0004075 165.9190 194.2179 15.55613445143512

FLOCK 4X-3
1 51006U 22002Y   24223.79240246  .00070556  00000+0  11128-2 0  9992
2 51006  97.3863 301.7521 0004860 159.8005 200.3441 15.53287633143493

FLOCK 4X-30
1 51000U 22002S   24223.76365558  .00071893  00000+0  11623-2 0  9992
2 51000  97.3791 300.7628 0005287 155.3075 204.8432 15.52591068143472

FLOCK 4X-32
1 51024U 22002AS  24223.54977404  .00085128  00000+0  13420-2 0  9996
2 51024  97.3900 301.2869 0005246 173.7040 186.4280 15.53241705143437

FLOCK 4X-35
1 51048U 22002BS  24223.75090371  .00078393  00000+0  12096-2 0  9998
2 51048  97.3737 300.6968 0003737 176.8614 183.2663 15.53869461143488

FLOCK 4X-36
1 51039U 22002BH  24223.79961115  .00089272  00000+0  13517-2 0  9992
2 51039  97.3850 301.7229 0004847 165.7154 194.4238 15.54343823143498

FLOCK 4X-39
1 51029U 22002AX  24223.77529137  .00090692  00000+0  13297-2 0  9996
2 51029  97.3799 301.3413 0005180 160.9039 199.2411 15.55220976143502

FLOCK 4X-4
1 51064U 22002CJ  24223.74986910  .00093951  00000+0  13465-2 0  9996
2 51064  97.3822 301.4726 0003485 170.5406 189.5915 15.55837853143506

FLOCK 4X-41
1 51005U 22002X   24223.76509006  .00079457  00000+0  12388-2 0  9998
2 51005  97.3809 300.8956 0005580 168.2449 191.8935 15.53568968143484

FLOCK 4X-43
1 51027U 22002AV  24223.19393192  .00070813  00000+0  11321-2 0  9999
2 51027  97.3827 300.4592 0005875 173.1198 187.0137 15.52903749143393

FLOCK 4X-44
1 50994U 22002L   24223.77922978  .00098882  00000+0  13900-2 0  9996
2 50994  97.3818 301.9413 0004040 182.0795 178.0443 15.56343854143500

FLOCK 4X-5
1 51004U 22002W   24223.75273413  .00078436  00000+0  10909-2 0  9999
2 51004  97.3808 301.3601 0003960 160.9093 199.2311 15.56709035143507

FLOCK 4X-6
1 51043U 22002BM  24223.86962629  .00087086  00000+0  13627-2 0  9999
2 51043  97.3864 301.5196 0004381 174.3508 185.7795 15.53444809143497

FLOCK 4X-7
1 51065U 22002CK  24223.76756482  .00074444  00000+0  11621-2 0  9996
2 51065  97.3842 301.3722 0005068 176.8832 183.2454 15.53556831143483

FLOCK 4X-8
1 50992U 22002J   24223.76455920  .00070596  00000+0  11456-2 0  9997
2 50992  97.3889 301.4266 0005357 163.5526 196.5901 15.52491576143476

FLOCK 4X-9
1 51047U 22002BR  24223.68832840  .00075885  00000+0  11958-2 0  9993
2 51047  97.3851 301.3864 0003429 170.7990 189.3327 15.53297301143465

FLOCK 4Y-1
1 55039U 23001AG  24223.13358435  .00065627  00000+0  16299-2 0  9997
2 55039  97.4225 287.1929 0005524 321.5008  38.5844 15.40083380 89175

FLOCK 4Y-10
1 55029U 23001W   24223.16030735  .00029289  00000+0  98312-3 0  9990
2 55029  97.4212 285.1901 0007816 339.2516  20.8406 15.30796596 89036

FLOCK 4Y-11
1 55043U 23001AL  24223.12294449  .00026094  00000+0  92888-3 0  9999
2 55043  97.4238 284.5562 0008519 339.5813  20.5085 15.28901628 88984

FLOCK 4Y-12
1 55065U 23001BJ  24223.74166430  .00032103  00000+0  10697-2 0  9994
2 55065  97.4236 285.9634 0009800 342.0891  18.0003 15.30997615 89123

FLOCK 4Y-13
1 55079U 23001BY  24223.60543764  .00027722  00000+0  92503-3 0  9991
2 55079  97.4210 285.6498 0010751 341.4713  18.6135 15.30973588 89101

FLOCK 4Y-14
1 55024U 23001R   24223.73415083  .00035648  00000+0  11931-2 0  9998
2 55024  97.4209 285.5947 0007793 345.9655  14.1368 15.30848587 89113

FLOCK 4Y-15
1 55068U 23001BM  24223.12748508  .00035668  00000+0  11915-2 0  9994
2 55068  97.4164 284.8886 0010578 338.4789  21.6006 15.30885317 89030

FLOCK 4Y-16
1 55040U 23001AH  24223.17010138  .00027814  00000+0  92787-3 0  9991
2 55040  97.4247 285.4577 0008089 345.0893  15.0108 15.31004740 89045

FLOCK 4Y-17
1 55031U 23001Y   24223.70354300  .00031502  00000+0  10574-2 0  9994
2 55031  97.4226 285.7504 0007746 341.8407  18.2556 15.30782330 89116

FLOCK 4Y-18
1 55023U 23001Q   24223.61223868  .00030511  00000+0  10168-2 0  9997
2 55023  97.4230 285.7094 0007561 339.8907  20.2035 15.31022510 89105

FLOCK 4Y-19
1 55026U 23001T   24223.68055058  .00153587  00000+0  38716-2 0  9999
2 55026  97.4179 285.7868 0005353 288.0509  72.0153 15.39257879 89134

FLOCK 4Y-2
1 55074U 23001BT  24223.60362116  .00031968  00000+0  10620-2 0  9992
2 55074  97.4216 285.6855 0010334 342.8923  17.1968 15.31090333 89101

FLOCK 4Y-20
1 55063U 23001BG  24223.78183907  .00034787  00000+0  11699-2 0  9997
2 55063  97.4241 285.8790 0010169 343.2982  16.7922 15.30677608 89125

FLOCK 4Y-21
1 55077U 23001BW  24223.13050781  .00031881  00000+0  10677-2 0  9991
2 55077  97.4227 285.3039 0010550 344.2086  15.8824 15.30827711 89038

FLOCK 4Y-22
1 55022U 23001P   24223.13559405  .00030361  00000+0  10189-2 0  9998
2 55022  97.4191 284.8813 0007657 336.0342  24.0542 15.30796818 89021

FLOCK 4Y-23
1 55080U 23001BZ  24223.16046377  .00024869  00000+0  82664-3 0  9998
2 55080  97.4217 285.3362 0010920 338.8419  21.2369 15.31117754 89057

FLOCK 4Y-24
1 55020U 23001M   24223.40501255  .00029633  00000+0  99359-3 0  9993
2 55020  97.4203 285.1377 0007521 345.4558  14.6465 15.30830898 89065

FLOCK 4Y-25
1 55027U 23001U   24223.18264213  .00031216  00000+0  10490-2 0  9993
2 55027  97.4170 284.8342 0007785 342.2128  17.8839 15.30746083 89032

FLOCK 4Y-26
1 55070U 23001BP  24223.16171119  .00026769  00000+0  89169-3 0  9998
2 55070  97.4238 285.2130 0010362 337.5874  22.4913 15.31040712 89048

FLOCK 4Y-27
1 55083U 23001CC  24223.17748990  .00027022  00000+0  87165-3 0  9997
2 55083  97.4226 285.6866 0010764 339.2398  20.8404 15.32069634 89070

FLOCK 4Y-28
1 55033U 23001AA  24223.17913852  .00045858  00000+0  11927-2 0  9992
2 55033  97.4148 287.9062 0005592 325.8155  34.2730 15.38764859 89243

FLOCK 4Y-29
1 55030U 23001X   24223.61181225  .00028948  00000+0  91005-3 0  9996
2 55030  97.4191 285.9890 0007675 328.7176  31.3608 15.32907230 89141

FLOCK 4Y-3
1 55035U 23001AC  24223.75808314  .00024838  00000+0  77380-3 0  9995
2 55035  97.4184 285.8088 0007952 347.2393  12.8646 15.33226140 89142

FLOCK 4Y-30
1 55025U 23001S   24223.59169432  .00027123  00000+0  90311-3 0  9996
2 55025  97.4238 285.7682 0007688 342.0408  18.0560 15.31074498 89100

FLOCK 4Y-32
1 55021U 23001N   24223.71432074  .00028558  00000+0  94333-3 0  9992
2 55021  97.4182 285.5773 0007490 337.8333  22.2583 15.31322323 89120

FLOCK 4Y-33
1 55042U 23001AK  24223.61390255  .00030691  00000+0  10253-2 0  9997
2 55042  97.4201 285.3833 0008058 335.8605  24.2258 15.30938958 89106

FLOCK 4Y-34
1 55082U 23001CB  24223.12231660  .00031152  00000+0  10451-2 0  9994
2 55082  97.4199 285.0950 0010538 338.5012  21.5785 15.30777134 89035

FLOCK 4Y-35
1 55057U 23001BA  24223.56708851  .00028035  00000+0  93726-3 0  9998
2 55057  97.4223 285.7049 0008972 343.5229  16.5719 15.30926495 89101

FLOCK 4Y-36
1 55078U 23001BX  24223.75879559  .00029682  00000+0  97363-3 0  9996
2 55078  97.4204 285.9401 0010317 339.2974  20.7848 15.31515711 89142

FLOCK 4Y-4
1 55055U 23001AY  24223.60528993  .00032319  00000+0  10697-2 0  9993
2 55055  97.4214 285.7262 0009927 335.9666  24.1110 15.31212167 89113
